STARLINK-36721          
1 67916U 26036N   26083.25002315 -.02186198  00000+0 -70340-1 0  9994
2 67916  42.9999 163.0221 0001531 259.8845 291.1265 15.34966079  5987
STARLINK-36722          
1 67917U 26036P   26083.25002315 -.02155359  00000+0 -67492-1 0  9994
2 67917  42.9998 162.7756 0001411 263.2289  27.3381 15.35756586  5983
STARLINK-36341          
1 67918U 26036Q   26083.25002315 -.01870353  00000+0 -44767-1 0  9992
2 67918  43.0001 163.7471 0000925 275.4611 343.9333 15.43900137  5985
STARLINK-36663          
1 67919U 26036R   26083.25002315 -.02186586  00000+0 -71800-1 0  9990
2 67919  42.9989 163.0031 0001562 255.4465 303.1335 15.34333336  5988
STARLINK-36375          
1 67920U 26036S   26083.25002315 -.02226388  00000+0 -80103-1 0  9993
2 67920  42.9994 163.4810 0001226 312.8165  51.5503 15.31529927  5988
STARLINK-36405          
1 67921U 26036T   26082.36032704 -.00278644  00000+0 -50006-2 0  9990
2 67921  42.9985 168.8648 0001759 253.3939 106.6728 15.50091528  5800
STARLINK-36383          
1 67922U 26036U   26082.58767343  .00158332  00000+0  74184-3 0  9992
2 67922  42.9998 164.4440 0002827 281.9711  78.0844 15.81982911  5876
STARLINK-36406          
1 67923U 26036V   26082.57356137  .00030602  00000+0  52452-3 0  9990
2 67923  43.0005 167.8927 0002811 249.0572 110.9987 15.50624435  5838
STARLINK-36714          
1 67924U 26036W   26083.25002315 -.02158081  00000+0 -67359-1 0  9999
2 67924  42.9997 163.2381 0001170 287.0465 175.9418 15.35862663  5987
STARLINK-36726          
1 67925U 26036X   26082.93806565  .00083909  00000+0  14202-2 0  9995
2 67925  43.0000 165.4573 0000823 346.0075  14.0762 15.50590481  5897
STARLINK-36758          
1 67926U 26036Y   26083.25002315 -.01845325  00000+0 -49481-1 0  9990
2 67926  42.9989 163.2634 0001530 285.4899 168.2255 15.40493533  5980
STARLINK-36728          
1 67927U 26036Z   26083.25002315 -.01849418  00000+0 -52936-1 0  9997
2 67927  42.9993 163.0584 0001325 294.8106 241.6822 15.38537513  5985
